GLOBALSTAR M057 [-]     
1 25943U 99058A   23309.49567714 -.00000050  00000+0  38799-3 0  9998
2 25943  51.9982 221.6634 0001685 237.9448 122.1238 12.24777975 94676
GLOBALSTAR M059 [-]     
1 25944U 99058B   23309.41518766 -.00000085  00000+0  12615-4 0  9992
2 25944  52.0045   2.6598 0000306 191.8191 181.3541 11.99953974503245
GLOBALSTAR M056 [-]     
1 25945U 99058C   23309.44716897 -.00000082  00000+0  58479-4 0  9996
2 25945  51.9996  19.6839 0001349 106.2539 265.7308 12.04771079 91543
GLOBALSTAR M031 [-]     
1 25946U 99058D   23309.41605149  .00000052  00000+0  14464-2 0  9991
2 25946  51.9972 307.3768 0001897  58.6345  89.6997 12.15998373 92794
GLOBALSTAR M039 [-]     
1 25961U 99062A   23309.33949101 -.00000060  00000+0  24178-3 0  9997
2 25961  51.9848 265.1929 0003075 110.5289 249.5908 12.62273461105721
GLOBALSTAR M029 [-]     
1 25963U 99062C   23309.58681031 -.00000052  00000+0  42002-3 0  9998
2 25963  51.9804 250.7348 0003304  42.2964 129.0988 11.99869877 98346
